[{"OBJECT_NAME":"HXMT (HUIYAN)","OBJECT_ID":"2017-034A","EPOCH":"2026-03-07T08:12:43.879392","MEAN_MOTION":15.17423402,"ECCENTRICITY":0.00326828,"INCLINATION":43.0153,"RA_OF_ASC_NODE":29.7234,"ARG_OF_PERICENTER":221.6481,"MEAN_ANOMALY":138.1877,"EPHEMERIS_TYPE":0,"CLASSIFICATION_TYPE":"U","NORAD_CAT_ID":42758,"ELEMENT_SET_NO":999,"REV_AT_EPOCH":48218,"BSTAR":0.00041233991,"MEAN_MOTION_DOT":8.28e-5,"MEAN_MOTION_DDOT":0},{"OBJECT_NAME":"SAOCOM 1A","OBJECT_ID":"2018-076A","EPOCH":"2026-03-07T14:24:12.985056","MEAN_MOTION":14.82166165,"ECCENTRICITY":0.00012722,"INCLINATION":97.8886,"RA_OF_ASC_NODE":254.8019,"ARG_OF_PERICENTER":85.8369,"MEAN_ANOMALY":274.2989,"EPHEMERIS_TYPE":0,"CLASSIFICATION_TYPE":"U","NORAD_CAT_ID":43641,"ELEMENT_SET_NO":999,"REV_AT_EPOCH":40105,"BSTAR":7.6406976e-5,"MEAN_MOTION_DOT":5.56e-6,"MEAN_MOTION_DDOT":0},{"OBJECT_NAME":"H-2A R/B","OBJECT_ID":"2018-084L","EPOCH":"2026-03-07T14:10:15.782880","MEAN_MOTION":15.41237087,"ECCENTRICITY":0.00256092,"INCLINATION":98.8727,"RA_OF_ASC_NODE":283.53,"ARG_OF_PERICENTER":32.4047,"MEAN_ANOMALY":327.8761,"EPHEMERIS_TYPE":0,"CLASSIFICATION_TYPE":"U","NORAD_CAT_ID":43682,"ELEMENT_SET_NO":999,"REV_AT_EPOCH":40545,"BSTAR":0.00066185477,"MEAN_MOTION_DOT":0.00027785,"MEAN_MOTION_DDOT":0},{"OBJECT_NAME":"SAOCOM 1B","OBJECT_ID":"2020-059A","EPOCH":"2026-03-06T22:57:01.124064","MEAN_MOTION":14.82173062,"ECCENTRICITY":0.00015046,"INCLINATION":97.8885,"RA_OF_ASC_NODE":253.2654,"ARG_OF_PERICENTER":81.2285,"MEAN_ANOMALY":278.9098,"EPHEMERIS_TYPE":0,"CLASSIFICATION_TYPE":"U","NORAD_CAT_ID":46265,"ELEMENT_SET_NO":999,"REV_AT_EPOCH":29834,"BSTAR":0.00017595012,"MEAN_MOTION_DOT":1.349e-5,"MEAN_MOTION_DDOT":0},{"OBJECT_NAME":"CSS (TIANHE)","OBJECT_ID":"2021-035A","EPOCH":"2026-03-07T14:29:25.066176","MEAN_MOTION":15.60534588,"ECCENTRICITY":0.00069595,"INCLINATION":41.4662,"RA_OF_ASC_NODE":220.8523,"ARG_OF_PERICENTER":260.1334,"MEAN_ANOMALY":99.8719,"EPHEMERIS_TYPE":0,"CLASSIFICATION_TYPE":"U","NORAD_CAT_ID":48274,"ELEMENT_SET_NO":999,"REV_AT_EPOCH":27728,"BSTAR":0.00030831615,"MEAN_MOTION_DOT":0.00025948,"MEAN_MOTION_DDOT":0},{"OBJECT_NAME":"COSMOS 2550","OBJECT_ID":"2021-056A","EPOCH":"2026-03-07T11:54:05.209632","MEAN_MOTION":15.33833543,"ECCENTRICITY":0.00082755,"INCLINATION":67.1447,"RA_OF_ASC_NODE":47.5674,"ARG_OF_PERICENTER":270.6267,"MEAN_ANOMALY":89.3939,"EPHEMERIS_TYPE":0,"CLASSIFICATION_TYPE":"U","NORAD_CAT_ID":48865,"ELEMENT_SET_NO":999,"REV_AT_EPOCH":26312,"BSTAR":-7.5534e-8,"MEAN_MOTION_DOT":-1.94e-6,"MEAN_MOTION_DDOT":0},{"OBJECT_NAME":"CZ-2C R/B","OBJECT_ID":"2022-058K","EPOCH":"2026-03-07T03:12:04.859712","MEAN_MOTION":15.54005208,"ECCENTRICITY":0.00422498,"INCLINATION":50.19,"RA_OF_ASC_NODE":331.4375,"ARG_OF_PERICENTER":189.9988,"MEAN_ANOMALY":170.0146,"EPHEMERIS_TYPE":0,"CLASSIFICATION_TYPE":"U","NORAD_CAT_ID":52794,"ELEMENT_SET_NO":999,"REV_AT_EPOCH":20973,"BSTAR":0.00057387059,"MEAN_MOTION_DOT":0.0003906,"MEAN_MOTION_DDOT":0},{"OBJECT_NAME":"CZ-2C R/B","OBJECT_ID":"2022-132E","EPOCH":"2026-03-07T13:51:42.693408","MEAN_MOTION":15.61630713,"ECCENTRICITY":0.00207672,"INCLINATION":97.2968,"RA_OF_ASC_NODE":69.8304,"ARG_OF_PERICENTER":98.3512,"MEAN_ANOMALY":262.0101,"EPHEMERIS_TYPE":0,"CLASSIFICATION_TYPE":"U","NORAD_CAT_ID":54039,"ELEMENT_SET_NO":999,"REV_AT_EPOCH":19004,"BSTAR":0.00056501326,"MEAN_MOTION_DOT":0.00049183,"MEAN_MOTION_DDOT":0},{"OBJECT_NAME":"GSLV R/B","OBJECT_ID":"2022-138AN","EPOCH":"2026-03-07T07:32:10.090752","MEAN_MOTION":14.96755731,"ECCENTRICITY":0.002271,"INCLINATION":87.3883,"RA_OF_ASC_NODE":167.1579,"ARG_OF_PERICENTER":154.8959,"MEAN_ANOMALY":205.3382,"EPHEMERIS_TYPE":0,"CLASSIFICATION_TYPE":"U","NORAD_CAT_ID":54149,"ELEMENT_SET_NO":999,"REV_AT_EPOCH":18357,"BSTAR":0.00037724,"MEAN_MOTION_DOT":4.362e-5,"MEAN_MOTION_DDOT":0},{"OBJECT_NAME":"XRISM","OBJECT_ID":"2023-137A","EPOCH":"2026-03-07T07:54:11.238336","MEAN_MOTION":15.11468795,"ECCENTRICITY":0.00080863,"INCLINATION":31.0025,"RA_OF_ASC_NODE":298.9308,"ARG_OF_PERICENTER":14.076,"MEAN_ANOMALY":346.0103,"EPHEMERIS_TYPE":0,"CLASSIFICATION_TYPE":"U","NORAD_CAT_ID":57800,"ELEMENT_SET_NO":999,"REV_AT_EPOCH":13743,"BSTAR":0.00044948179,"MEAN_MOTION_DOT":7.898e-5,"MEAN_MOTION_DDOT":0},{"OBJECT_NAME":"ACS3","OBJECT_ID":"2024-077B","EPOCH":"2026-03-07T09:50:06.006336","MEAN_MOTION":13.89476881,"ECCENTRICITY":0.0058017,"INCLINATION":97.209,"RA_OF_ASC_NODE":8.0342,"ARG_OF_PERICENTER":82.5796,"MEAN_ANOMALY":278.1956,"EPHEMERIS_TYPE":0,"CLASSIFICATION_TYPE":"U","NORAD_CAT_ID":59588,"ELEMENT_SET_NO":999,"REV_AT_EPOCH":9388,"BSTAR":0.018399274,"MEAN_MOTION_DOT":0.00022817,"MEAN_MOTION_DDOT":0},{"OBJECT_NAME":"SZ-21 MODULE","OBJECT_ID":"2025-246C","EPOCH":"2026-03-07T11:06:32.685984","MEAN_MOTION":15.68341086,"ECCENTRICITY":0.00014291,"INCLINATION":41.4737,"RA_OF_ASC_NODE":217.0662,"ARG_OF_PERICENTER":294.3949,"MEAN_ANOMALY":65.6744,"EPHEMERIS_TYPE":0,"CLASSIFICATION_TYPE":"U","NORAD_CAT_ID":66515,"ELEMENT_SET_NO":999,"REV_AT_EPOCH":1772,"BSTAR":0.00043322838,"MEAN_MOTION_DOT":0.00050102,"MEAN_MOTION_DDOT":0}]
